School Code,School Name,Address,City,State,Zipcode,Phone,District Code,District Name,,County,Grades
P003,ASSUMPTION CATHOLIC SCHOOL    ,2341 EAST 78TH AVENUE         ,DENVER              ,CO,80229 ,3032882159,0010,MAPLETON            1         ,01,ADAMS           ,PK-08 
P004,COMMUNITY CHRISTIAN SCHOOL    ,11980 IRMA DRIVE              ,NORTHGLENN          ,CO,80233 ,3034527514,0020,ADAMS 12 FIVE STAR SCHOOLS    ,01,ADAMS           ,PK-12 
P493,EASTLAKE MONTESSORI SCHOOL    ,PO BOX 222                    ,EASTLAKE            ,CO,80614 ,3034523835,0020,ADAMS 12 FIVE STAR SCHOOLS    ,01,ADAMS           ,PK-K  
P021,GETHSEMANE LUTHERAN SCHOOL    ,10675 NORTH WASHINGTON STREET ,NORTHGLENN          ,CO,80233 ,3034516908,0020,ADAMS 12 FIVE STAR SCHOOLS    ,01,ADAMS           ,PK-07 
P257,cde,3960 EAST 128TH AVENUE        ,THORNTON            ,CO,80241 ,3034500119,0020,ADAMS 12 FIVE STAR SCHOOLS    ,01,ADAMS           ,PK-PK 
P384,HOLY FAMILY HIGH SCHOOL       ,5195 WEST 144TH AVENUE        ,BROOMFIELD          ,CO,80023 ,3034101411,0020,ADAMS 12 FIVE STAR SCHOOLS    ,01,ADAMS           ,09-12 
P752,LIFE CHRISTIAN ACADEMY        ,11500 NORTH SHERIDAN BLVD     ,WESTMINSTER         ,CO,80020 ,3034381260,0020,ADAMS 12 FIVE STAR SCHOOLS    ,01,ADAMS           ,PK-12 
P039,NORTHSIDE CHRISTIAN DAYCARE   ,11550 NORTH WASHINGTON STREET ,NORTHGLENN          ,CO,80233 ,3034571433,0020,ADAMS 12 FIVE STAR SCHOOLS    ,01,ADAMS           ,PK- K 
P745,ROCKY MOUNTAIN LUTHERAN HIGH  ,2300 WEST 90TH AVENUE         ,FEDERAL HEIGHTS     ,CO,80260 ,3033461947,0020,ADAMS 12 FIVE STAR SCHOOLS    ,01,ADAMS           ,09-12 
P436,ST JOHN'S EARLY LEARNING CTR  ,11040 COLORADO BLVD           ,THORNTON            ,CO,80233 ,3039202142,0020,ADAMS 12 FIVE STAR SCHOOLS    ,01,ADAMS           ,PK-PK 
P675,LITTLE GIANTS LEARNING CENTER ,7420 NEWPORT STREET           ,COMMERCE CITY       ,CO,80022 ,          ,0030,ADAMS COUNTY        14        ,01,ADAMS           ,PK-PK 
P587,ADVANCE MONTESSORI            ,15161 SHADOW WOOD STREET      ,BRIGHTON            ,CO,80603 ,3036550143,0040,BRIGHTON            27J       ,01,ADAMS           ,PK-04 
P671,BRIGHTON MONTESSORI SCHOOL INC,203 SOUTH 3RD AVENUE          ,BRIGHTON            ,CO,80601 ,3036590515,0040,BRIGHTON            27J       ,01,ADAMS           ,PK- K 
P054,ELMWOOD BAPTIST ACADEMY       ,13100 EAST 144TH AVENUE       ,BRIGHTON            ,CO,80601 ,3036593818,0040,BRIGHTON            27J       ,01,ADAMS           ,PK-12 
P908,KIDDIE ACADEMY OF BRIGHTON    ,19 NORTH 42ND AVE             ,BRIGHTON            ,CO,80601 ,7206850003,0040,BRIGHTON            27J       ,01,ADAMS           ,PK- K 
P057,ZION LUTHERAN SCHOOL          ,1400 SKEEL STREET             ,BRIGHTON            ,CO,80601 ,3036593443,0040,BRIGHTON            27J       ,01,ADAMS           ,PK-08 
P392,OUR LADY OF HELP OF CHRISTIANS,32100 EAST COLFAX SERVICE RD  ,WATKINS             ,CO,80137 ,3033445830,0050,BENNETT             29J       ,01,ADAMS           , K-12 
P063,BELLEVIEW CHRISTIAN SCHOOL    ,3455 WEST 83RD AVENUE         ,WESTMINSTER         ,CO,80031 ,3034275459,0070,WESTMINSTER         50        ,01,ADAMS           ,PK-12 
P335,CHILDREN'S OUTREACH PROJECT   ,8000 PECOS STREET             ,DENVER              ,CO,80221 ,3034290653,0070,WESTMINSTER         50        ,01,ADAMS           ,PK- K 
P069,GUARDIAN ANGELS SCHOOL        ,1843 WEST 52ND AVENUE         ,DENVER              ,CO,80221 ,3034809005,0070,WESTMINSTER         50        ,01,ADAMS           ,PK-08 
P072,HOLY TRINITY CATHOLIC SCHOOL  ,3050 WEST 76TH AVENUE         ,WESTMINSTER         ,CO,80030 ,3034275632,0070,WESTMINSTER         50        ,01,ADAMS           ,PK-08 
P896,HYLAND HILLS PRESCHOOL        ,7125 WEST MARIPOSA STREET     ,ARVADA              ,CO,80221 ,3036507657,0070,WESTMINSTER         50        ,01,ADAMS           ,PK-PK 
P334,WESTMINSTER LEARNING CENTER   ,4000 SHAW BLVD                ,WESTMINSTER         ,CO,80030 ,3034278831,0070,WESTMINSTER         50        ,01,ADAMS           ,PK-PK 
P078,TRINITY LUTHERAN SCHOOL       ,"52 EL RIO DRIVE, PO BOX 787   ",ALAMOSA             ,CO,81101 ,7195893271,0100,ALAMOSA             RE-11J    ,02,ALAMOSA         ,PK-03 
P081,ALL SOULS CATHOLIC SCHOOL     ,4951 SOUTH PENNSYLVANIA       ,ENGLEWOOD           ,CO,80113 ,3037892155,0120,ENGLEWOOD           1         ,03,ARAPAHOE        ,PK-08 
P325,HUMANEX ACADEMY               ,2700 SOUTH ZUNI STREET        ,ENGLEWOOD           ,CO,80110 ,3037830137,0120,ENGLEWOOD           1         ,03,ARAPAHOE        ,06-12 
P084,ST LOUIS CATHOLIC SCHOOL      ,3301 SOUTH SHERMAN STREET     ,ENGLEWOOD           ,CO,80113 ,3037628307,0120,ENGLEWOOD           1         ,03,ARAPAHOE        ,K -08 
P093,BEACON COUNTRY DAY SCHOOL     ,6100 EAST BELLVIEW            ,GREENWOOD VILLAGE   ,CO,80111 ,3037713990,0130,CHERRY CREEK        5         ,03,ARAPAHOE        ,PK-08 
P111,DENVER JEWISH DAY SCHOOL      ,2450 SOUTH WABASH STREET      ,DENVER              ,CO,80231 ,7204499550,0130,CHERRY CREEK        5         ,03,ARAPAHOE        ,K -12 
P114,HOLY LOVE PRESCHOOL & KINDER  ,4210 SOUTH CHAMBERS ROAD      ,AURORA              ,CO,80014 ,3036938519,0130,CHERRY CREEK        5         ,03,ARAPAHOE        ,PK- K 
P117,KENT DENVER SCHOOL            ,4000 EAST QUINCY AVENUE       ,ENGLEWOOD           ,CO,80113 ,3037707660,0130,CHERRY CREEK        5         ,03,ARAPAHOE        ,06-12 
P070,MONTESSORI AT GREENWOOD PLAZA ,5889 GREENWOOD PLAZA BLVD #100,ENGLEWOOD           ,CO,80111 ,3037930190,0130,CHERRY CREEK        5         ,03,ARAPAHOE        ,PK- K 
P784,MONTESSORI AT THE MARINA      ,"8101 E BELLEVIEW AVE, UNIT T20",DENVER              ,CO,80237 ,3032908843,0130,CHERRY CREEK        5         ,03,ARAPAHOE        ,PK-PK 
P126,MT OLIVE LUTHERAN ECEC        ,11500 EAST ILIFF AVENUE       ,AURORA              ,CO,80014 ,3037509856,0130,CHERRY CREEK        5         ,03,ARAPAHOE        ,PK-PK 
P635,PEACE W/CHRIST CHRISTIAN SCHL ,3290 SOUTH TOWER ROAD         ,AURORA              ,CO,80013 ,3037667116,0130,CHERRY CREEK        5         ,03,ARAPAHOE        ,PK-08 
P453,REGIS JESUIT HIGH SCHOOL      ,6300 S. LEWISTON WAY          ,AURORA              ,CO,80016 ,3032698100,0130,CHERRY CREEK        5         ,03,ARAPAHOE        ,09-12 
P129,ST MARY'S ACADEMY             ,4545 SOUTH UNIVERSITY BLVD    ,ENGLEWOOD           ,CO,80113 ,3037628300,0130,CHERRY CREEK        5         ,03,ARAPAHOE        ,PK-12 
P019,ST THOMAS MORE CATHOLIC SCHOOL,7071 EAST OTERO AVENUE        ,CENTENNIAL          ,CO,80112 ,3037700441,0130,CHERRY CREEK        5         ,03,ARAPAHOE        ,PK-08 
P132,THE THREE BEARS LEARNING CTR  ,1461 SOUTH DAYTON STREET      ,DENVER              ,CO,80247 ,3033696464,0130,CHERRY CREEK        5         ,03,ARAPAHOE        ,PK- K 
P079,VILLAGE CHILD DEVELOPMENT CTR ,9400 EAST BELLEVIEW AVENUE    ,GREENWOOD VILLAGE   ,C0,80111 ,3032909005,0130,CHERRY CREEK        5         ,03,ARAPAHOE        ,PK- K 
P135,WILLOWS CHILD LEARNING CENTER ,6865 SOUTH QUEBEC STREET      ,CENTENNIAL          ,CO,80112 ,3037714202,0130,CHERRY CREEK        5         ,03,ARAPAHOE        ,PK- K 
P085,WILLOWS-OLDE MILL             ,6894 SOUTH HOMESTEAD PARKWAY  ,CENTENNIAL          ,CO,80112 ,3037217771,0130,CHERRY CREEK        5         ,03,ARAPAHOE        ,PK- K 
P740,AMBLESIDE SCHOOL              ,1510 EAST PHILIPS AVENUE      ,CENTENNIAL          ,CO,80122 ,7204680464,0140,LITTLETON           6         ,03,ARAPAHOE        ,K-8   
P414,MACKINTOSH ACADEMY: LITTLETON ,7018 SOUTH PRINCE STREET      ,LITTLETON           ,CO,80120 ,3037946222,0140,LITTLETON           6         ,03,ARAPAHOE        ,PK-08 
P782,ROCK SOLID HIGH SCHOOL        ,6570B SOUTH BROADWAY          ,LITTLETON           ,CO,80121 ,3037971005,0140,LITTLETON           6         ,03,ARAPAHOE        ,09-12 
P138,SHEPHERD OF HILLS CHRISTIAN   ,7691 SOUTH UNIVERSITY BLVD    ,CENTENNIAL          ,CO,80122 ,3037980711,0140,LITTLETON           6         ,03,ARAPAHOE        ,PK-08 
P144,ST MARY CATHOLIC SCHOOL       ,6833 SOUTH PRINCE STREET      ,LITTLETON           ,CO,80120 ,3037982375,0140,LITTLETON           6         ,03,ARAPAHOE        ,PK -08
P662,BECK RECREATION CENTER        ,800 TELLURIDE STREET          ,AURORA              ,CO,80011 ,3037396878,0180,ADAMS-ARAPAHOE      28J       ,03,ARAPAHOE        ,PK-PK 
P467,BETHEL CHRISTIAN SCHOOL       ,1450 AIRPORT BLVD             ,AURORA              ,CO,80011 ,3033642541,0180,ADAMS-ARAPAHOE      28J       ,03,ARAPAHOE        ,PK- K 
P303,CEDARWOOD CHRISTIAN ACADEMY   ,11430 EAST 19TH AVENUE        ,AURORA              ,CO,80010 ,3033616456,0180,ADAMS-ARAPAHOE      28J       ,03,ARAPAHOE        ,K -12 
P159,CHRIST OUR REDEEMER LUTHERAN  ,17700 EAST ILIFF AVENUE       ,AURORA              ,CO,80013 ,3033373108,0180,ADAMS-ARAPAHOE      28J       ,03,ARAPAHOE        ,PK-08 
P751,DENVER STREET SCHOOL          ,1585 KINGSTON STREET          ,AURORA              ,CO,80010 ,7209352154,0180,ADAMS-ARAPAHOE      28J       ,03,ARAPAHOE        ,09-12 
P472,LITTLE ANGELS DAY CARE INC    ,13963 EAST EXPOSITION AVE     ,AURORA              ,CO,80012 ,3033404566,0180,ADAMS-ARAPAHOE      28J       ,03,ARAPAHOE        ,PK-PK 
P476,MEADOWOOD PRESCHOOL PROGRAM   ,3054 SOUTH LAREDO STREET      ,AURORA              ,CO,80013 ,3033268304,0180,ADAMS-ARAPAHOE      28J       ,03,ARAPAHOE        ,PK-PK 
P478,ST MARKS PRESCHOOL            ,111 DEL MAR CIRCLE            ,AURORA              ,CO,80011 ,3033665089,0180,ADAMS-ARAPAHOE      28J       ,03,ARAPAHOE        ,PK-PK 
P183,ST PIUS X SCHOOL              ,13680 EAST 14TH PLACE         ,AURORA              ,CO,80011 ,3033646515,0180,ADAMS-ARAPAHOE      28J       ,03,ARAPAHOE        ,PK-08 
P186,ST THERESE SCHOOL             ,1200 KENTON STREET            ,AURORA              ,CO,80010 ,3033647494,0180,ADAMS-ARAPAHOE      28J       ,03,ARAPAHOE        ,PK-08 
P017,OUR SAVIOR LUTHERAN SCHOOL    ,56 MEADOWS DRIVE              ,PAGOSA SPRINGS      ,CO,81147 ,9707313512,0220,ARCHULETA COUNTY    50 JT     ,04,ARCHULETA       ,PK-04 
P358,ASPEN CENTER FOR CHILD DEV    ,501 5TH AVE                   ,LONGMONT            ,CO,80501 ,3037724320,0470,ST VRAIN VALLEY     RE 1J     ,07,BOULDER         ,PK-PK 
P332,BRIGHT HORIZONS               ,919 DEERWOOD STREET           ,LONGMONT            ,CO,80504 ,3037721008,0470,ST VRAIN VALLEY     RE 1J     ,07,BOULDER         ,PK-PK 
P353,CROSSROADS SCHOOL             ,1212 SOUTH TERRY STREET       ,LONGMONT            ,CO,80501 ,3037099881,0470,ST VRAIN VALLEY     RE 1J     ,07,BOULDER         ,06-12 
P223,DESIDERATA SCHOOL INC         ,15785 N 83RD STREET           ,LONGMONT            ,CO,80503 ,3036789335,0470,ST VRAIN VALLEY     RE 1J     ,07,BOULDER         ,K -12 
P195,FAITH BAPTIST SCHOOL          ,833 15TH AVENUE               ,LONGMONT            ,CO,80501 ,3037765677,0470,ST VRAIN VALLEY     RE 1J     ,07,BOULDER         ,PK-12 
P198,GATEWAY MONTESSORI SCHOOL     ,1500 9TH AVENUE               ,LONGMONT            ,CO,80503 ,3037723864,0470,ST VRAIN VALLEY     RE 1J     ,07,BOULDER         ,PK- K 
P225,HOPEWELL BAPTIST ACADEMY      ,1146 KIMBARK STREET           ,LONGMONT            ,CO,80501 ,3036511325,0470,ST VRAIN VALLEY     RE 1J     ,07,BOULDER         ,PK-12 
P149,KINDERCARE                    ,851 CHRISMAN DRIVE            ,LONGMONT            ,CO,80501 ,3036511008,0470,ST VRAIN VALLEY     RE 1J     ,07,BOULDER         ,PK-05 
P068,LONGMONT CHRISTIAN SCHOOL     ,1440 COLLYER STREET           ,LONGMONT            ,CO,80501 ,3037763254,0470,ST VRAIN VALLEY     RE 1J     ,07,BOULDER         ,PK-12 
P326,MESSIAH EARLY LEARNING CENTER ,1335 FRANCIS STREET           ,LONGMONT            ,CO,80501 ,3037763466,0470,ST VRAIN VALLEY     RE 1J     ,07,BOULDER         ,PK-PK 
P261,MOUNTAIN PEAK PRIVATE SCHOOL  ,1833 SUNSET PLACE SUITES E & F,LONGMONT            ,CO,80501 ,7204941622,0470,ST VRAIN VALLEY     RE 1J     ,07,BOULDER         ,PK-06 
P460,PRIMROSE SCHOOL OF LONGMONT   ,1335 DRY CREEK DRIVE          ,LONGMONT            ,CO,80503 ,3037741919,0470,ST VRAIN VALLEY     RE 1J     ,07,BOULDER         ,PK-04 
P457,ROCKY MTN CHRISTIAN ACADEMY   ,9447 NIWOT ROAD               ,NIWOT               ,CO,80503 ,3036529162,0470,ST VRAIN VALLEY     RE 1J     ,07,BOULDER         ,PK -08
P040,SHEPHERD VALLEY WALDORF SCHOOL,6500 WEST DRY CREEK PARKWAY   ,NIWOT               ,CO,80503 ,3036520130,0470,ST VRAIN VALLEY     RE 1J     ,07,BOULDER         ,K -08 
P213,ST JOHN THE BAPTIST CATHOLIC  ,350 EMERY STREET              ,LONGMONT            ,CO,80501 ,3037768760,0470,ST VRAIN VALLEY     RE 1J     ,07,BOULDER         ,PK-08 
P461,THE GODDARD SCHOOL            ,1095 OLYMPIA AVENUE           ,LONGMONT            ,CO,80504 ,3037723501,0470,ST VRAIN VALLEY     RE 1J     ,07,BOULDER         ,PK- K 
P062,THE LONGMONT COTTAGE          ,1941 TERRY STREET             ,LONGMONT            ,CO,80501 ,3034513780,0470,ST VRAIN VALLEY     RE 1J     ,07,BOULDER         ,PK- K 
P277,VISTA RIDGE ACADEMY           ,3100 RIDGE VIEW DRIVE         ,ERIE                ,CO,80516 ,3038284944,0470,ST VRAIN VALLEY     RE 1J     ,07,BOULDER         ,PK-12 
P103,ALEXANDER DAWSON SCHOOL       ,10455 DAWSON DRIVE            ,LAFAYETTE           ,CO,80026 ,3036656679,0480,BOULDER VALLEY      RE 2      ,07,BOULDER         ,K -12 
P306,APPLETREE CHRISTIAN PRESCHOOL ,545 WEST 10TH AVENUE          ,BROOMFIELD          ,CO,80020 ,3034668365,0480,BOULDER VALLEY      RE 2      ,07,BOULDER         ,PK- K 
P659,ASPEN GROVE COMMUNITY PRE-K   ,PO BOX 1743                   ,NEDERLAND           ,CO,80466 ,3032580390,0480,BOULDER VALLEY      RE 2      ,07,BOULDER         ,PK-PK 
P216,BEAUTIFUL SAVIOR LUTHERAN SCH ,"6995 W 120TH AVE, P O BOX 8   ",BROOMFIELD          ,CO,80038 ,3034692049,0480,BOULDER VALLEY      RE 2      ,07,BOULDER         ,PK-05 
P219,BIXBY SCHOOL                  ,4760 TABLE MESA DRIVE         ,BOULDER             ,CO,80305 ,3034947508,0480,BOULDER VALLEY      RE 2      ,07,BOULDER         ,PK-05 
P121,BOULDER MONTESSORI SCHOOL     ,3300 REDSTONE ROAD            ,BOULDER             ,CO,80305 ,3034945814,0480,BOULDER VALLEY      RE 2      ,07,BOULDER         ,K - K 
P094,BROOMFIELD ACADEMY            ,7203 WEST 120TH AVENUE        ,BROOMFIELD          ,CO,80020 ,3034696449,0480,BOULDER VALLEY      RE 2      ,07,BOULDER         ,PK-08 
P647,CATALYST HIGH SCHOOL          ,1376 MINERS DRIVE STE 106     ,LAFAYETTE           ,CO,80026 ,3036046512,0480,BOULDER VALLEY      RE 2      ,07,BOULDER         ,09-12 
P806,CHILDREN'S CREATIVE LEARNING  ,3050 34TH STREET              ,BOULDER             ,CO,80301 ,3034435595,0480,BOULDER VALLEY      RE 2      ,07,BOULDER         ,PK-PK 
P704,CHILDREN'S HOUSE PRESCHOOL    ,3370 IRIS WALK COURT          ,BOULDER             ,CO,80304 ,3034446432,0480,BOULDER VALLEY      RE 2      ,07,BOULDER         ,PK-PK 
P563,FAIRVIEW MONTESSORI SCHOOL    ,1501 JEFFERSON AVENUE         ,LOUISVILLE          ,CO,80027 ,3032509447,0480,BOULDER VALLEY      RE 2      ,07,BOULDER         ,PK- K 
P154,FRIENDS' SCHOOL               ,5465 PENNSYLVANIA AVENUE      ,BOULDER             ,CO,80303 ,3034991999,0480,BOULDER VALLEY      RE 2      ,07,BOULDER         ,PK-05 
P190,MAPLETON MONTESSORI SCHOOL    ,3121 29TH STREET              ,BOULDER             ,CO,80301 ,3034494499,0480,BOULDER VALLEY      RE 2      ,07,BOULDER         ,PK- K 
P703,MISS CATHERINE'S CREATIVE LEAR,6525 GUNPARK DRIVE            ,BOULDER             ,CO,80301 ,3035301820,0480,BOULDER VALLEY      RE 2      ,07,BOULDER         ,PK-PK 
P269,MOUNTAIN VIEW PRESCHOOL       ,355 PONCA PLACE               ,BOULDER             ,CO,80303 ,3034943557,0480,BOULDER VALLEY      RE 2      ,07,BOULDER         ,PK-PK 
P368,NATIVITY OF OUR LORD CATHOLIC ,900 MIDWAY BLVD               ,BROOMFIELD          ,CO,80020 ,3034664177,0480,BOULDER VALLEY      RE 2      ,07,BOULDER         ,K -08 
P242,PROMISE CHRISTIAN PRESCHOOL   ,9880 BASELINE ROAD            ,LAFAYETTE           ,CO,80026 ,3036669874,0480,BOULDER VALLEY      RE 2      ,07,BOULDER         ,PK-PK 
P702,RAINBOW TREE PRESCHOOL        ,1305 WEST 10TH AVENUE         ,BROOMFIELD          ,CO,80020 ,3034698300,0480,BOULDER VALLEY      RE 2      ,07,BOULDER         ,PK-PK 
P240,ST LOUIS CATHOLIC SCHOOL      ,925 GRANT AVENUE              ,LOUISVILLE          ,CO,80027 ,3036666220,0480,BOULDER VALLEY      RE 2      ,07,BOULDER         ,PK-08 
P609,UNITED CHURCH OF BROOMFIELD   ,825 KOHL STREET               ,BROOMFIELD          ,CO,80020 ,3034668355,0480,BOULDER VALLEY      RE 2      ,07,BOULDER         ,PK-PK 
P249,DARREN PATTERSON CHRISTIAN    ,518 SOUTH SAN JUAN AVE        ,BUENA VISTA         ,CO,81211 ,7193956046,0490,BUENA VISTA         R-31      ,08,CHAFFEE         ,PK-12 
P497,CHAFFEE CO MONTESSORI SCHOOL  ,PO BOX 696                    ,SALIDA              ,CO,81201 ,7195394887,0500,SALIDA              R-32      ,08,CHAFFEE         ,PK-06 
P397,KIDS CAMPUS                   ,315 EAST 6TH STREET           ,ORDWAY              ,CO,80163 ,7192673640,0770,CROWLEY COUNTY      RE-1-J    ,13,CROWLEY         ,PK-PK 
P273,DELTA SEVENTH DAY ADVENTIST   ,BOX 91                        ,DELTA               ,CO,81416 ,9708749482,0870,DELTA COUNTY        50(J)     ,15,DELTA           ,01-08 
P282,ACCELERATED SCHOOLS FOUND #1  ,2160 SOUTH COOK STREET        ,DENVER              ,CO,80210 ,3037582003,0880,DENVER COUNTY       1         ,16,DENVER          ,K -12 
P598,ANCHOR CENTER FOR BLIND CHILDR,2550 ROSLYN STREET            ,DENVER              ,CO,80238 ,3033779732,0880,DENVER COUNTY       1         ,16,DENVER          ,PK-PK 
P291,ANNUNCIATION CATHOLIC SCHOOL  ,3536 LAFAYETTE STREET         ,DENVER              ,CO,80205 ,3032952515,0880,DENVER COUNTY       1         ,16,DENVER          , K-08 
P314,ARRUPE JESUIT HIGH SCHOOL     ,4343 UTICA STREET             ,DENVER              ,CO,80212 ,3034557449,0880,DENVER COUNTY       1         ,16,DENVER          ,09-12 
P362,AURARIA EARLY LEARNING CENTER ,950 9TH ST CAMPUS BOX N       ,DENVER              ,CO,80217 ,3035563188,0880,DENVER COUNTY       1         ,16,DENVER          ,PK- K 
P294,BETH JACOB HIGH SCHOOL        ,5100 WEST 14TH AVENUE         ,DENVER              ,CO,80219 ,3038931333,0880,DENVER COUNTY       1         ,16,DENVER          ,09-12 
P315,CHILDREN'S GARDEN MONTESSORI  ,444 DETROIT STREET            ,DENVER              ,CO,80206 ,3033220972,0880,DENVER COUNTY       1         ,16,DENVER          ,PK- K 
P321,CHRIST THE KING ROMAN CATHOLIC,860 ELM STREET                ,DENVER              ,CO,80220 ,3033212123,0880,DENVER COUNTY       1         ,16,DENVER          ,PK-08 
P363,CRAYON ACADEMY                ,10 SHERIDAN BLVD              ,DENVER              ,CO,80226 ,3035710876,0880,DENVER COUNTY       1         ,16,DENVER          ,PK-PK 
P333,DENVER ACADEMY                ,4400 EAST ILIFF AVENUE        ,DENVER              ,CO,80222 ,3037775870,0880,DENVER COUNTY       1         ,16,DENVER          ,01-12 
P364,FAMILY FLEX INC               ,1005 ACOMA ST                 ,DENVER              ,CO,80204 ,3035711005,0880,DENVER COUNTY       1         ,16,DENVER          ,PK-PK 
P599,GARFIELD MONTESSORI SCHOOL    ,3617 MARTIN LUTHER KING BLVD  ,DENVER              ,CO,80205 ,3033888828,0880,DENVER COUNTY       1         ,16,DENVER          ,PK- K 
P366,GOOD SHEPHERD CATHOLIC SCHOOL ,620 ELIZABETH STREET          ,DENVER              ,CO,80220 ,3033216231,0880,DENVER COUNTY       1         ,16,DENVER          ,PK-08 
P372,GRALAND COUNTRY DAY SCHOOL    ,55 CLERMONT STREET            ,DENVER              ,CO,80220 ,3033990390,0880,DENVER COUNTY       1         ,16,DENVER          ,PK-08 
P378,HILLEL ACADEMY OF DENVER      ,450 SOUTH HUDSON STREET       ,DENVER              ,CO,80246 ,3033331511,0880,DENVER COUNTY       1         ,16,DENVER          ,PK-08 
P390,ILIFF PRESCHOOL INC           ,4140 EAST ILIFF AVENUE        ,DENVER              ,CO,80222 ,3037573551,0880,DENVER COUNTY       1         ,16,DENVER          ,PK- K 
P251,INNER-CITY SCHOOL             ,3560 JOSEPHINE ST             ,DENVER              ,CO,80205 ,3033164533,0880,DENVER COUNTY       1         ,16,DENVER          ,PK-06 
P483,INTERNATIONAL SCHOOL OF DENVER,206 RED CROSS WAY             ,DENVER              ,CO,80230 ,3033403647,0880,DENVER COUNTY       1         ,16,DENVER          ,PK -08
P393,JEWISH COMMUNITY CENTER       ,350 SOUTH DAHLIA STREET       ,DENVER              ,CO,80246 ,3033166307,0880,DENVER COUNTY       1         ,16,DENVER          ,PK-PK 
P429,MOST PRECIOUS BLOOD CATHOLIC  ,3959 EAST ILIFF AVENUE        ,DENVER              ,CO,80210 ,3037571279,0880,DENVER COUNTY       1         ,16,DENVER          ,PK-08 
P438,MULLEN HIGH SCHOOL            ,3601 SOUTH LOWELL BOULEVARD   ,DENVER              ,CO,80236 ,3037611764,0880,DENVER COUNTY       1         ,16,DENVER          ,09-12 
P441,NOTRE DAME CATHOLIC SCHOOL    ,2165 SOUTH ZENOBIA STREET     ,DENVER              ,CO,80219 ,3039353549,0880,DENVER COUNTY       1         ,16,DENVER          ,PK-08 
P623,PARZIVAL SHIELD PRESCHOOL/KIND,2180 SOUTH MADISON STREET     ,DENVER              ,CO,80210 ,3037575102,0880,DENVER COUNTY       1         ,16,DENVER          ,PK- K 
P125,RICKS CTR FOR GIFTED CHILDREN ,2040 S YORK ST                ,DENVER              ,CO,80208 ,3038712982,0880,DENVER COUNTY       1         ,16,DENVER          ,PK-08 
P474,ST CATHERINE OF SIENA SCHOOL  ,4200 FEDERAL BOULEVARD        ,DENVER              ,CO,80211 ,3034778035,0880,DENVER COUNTY       1         ,16,DENVER          ,PK-08 
P370,ST ELIZABETH'S SCHOOL         ,2350 GAYLORD STREET           ,DENVER              ,CO,80205 ,3033224209,0880,DENVER COUNTY       1         ,16,DENVER          , K-06 
P477,ST FRANCIS DE SALES           ,235 SOUTH SHERMAN STREET      ,DENVER              ,CO,80209 ,3037447231,0880,DENVER COUNTY       1         ,16,DENVER          ,PK-08 
P495,ST ROSE OF LIMA CATHOLIC ACAD ,1345 WEST DAKOTA AVENUE       ,DENVER              ,CO,80223 ,3037335806,0880,DENVER COUNTY       1         ,16,DENVER          ,PK-08 
P498,ST VINCENT DE PAUL SCHOOL     ,1164 SOUTH JOSEPHINE STREET   ,DENVER              ,CO,80210 ,3037773812,0880,DENVER COUNTY       1         ,16,DENVER          ,PK-08 
P501,STANLEY BRITISH PRIMARY SCHOOL,350 QUEBEC STREET             ,DENVER              ,CO,80230 ,3033600803,0880,DENVER COUNTY       1         ,16,DENVER          ,K -08 
P351,THE DENVER WALDORF SCHOOL     ,940 FILLMORE STREET           ,DENVER              ,CO,80206-,3037770531,0880,DENVER COUNTY       1         ,16,DENVER          ,PK-12 
P226,THE LOGAN SCHOOL FOR CREATIVE ,1005 YOSEMITE STREET          ,DENVER              ,CO,80209 ,3033402444,0880,DENVER COUNTY       1         ,16,DENVER          ,K -08 
P758,THE RISE SCHOOL OF DENVER     ,4901 EAST EASTMAN AVE         ,DENVER              ,CO,80222 ,3037567473,0880,DENVER COUNTY       1         ,16,DENVER          ,PK-PK 
P566,TRINITY LUTHERAN ECLC         ,4225 WEST YALE AVENUE         ,DENVER              ,CO,80219 ,3033597633,0880,DENVER COUNTY       1         ,16,DENVER          ,PK- K 
P027,AVE MARIA CATHOLIC SCHOOL     ,9056 EAST PARKER ROAD         ,PARKER              ,CO,80138 ,7208425400,0900,DOUGLAS COUNTY      RE 1      ,18,DOUGLAS         ,PK-08 
P099,CHERRY HILLS CHRISTIAN        ,3900 EAST GRACE BOULEVARD     ,HIGHLANDS RANCH     ,CO,80126 ,3033258175,0900,DOUGLAS COUNTY      RE 1      ,18,DOUGLAS         ,PK -08
P130,MONTESSORI SCHOOL AT LONE TREE,9396 ERMINDALE DRIVE          ,LITTLETON           ,CO,80124 ,3037998540,0900,DOUGLAS COUNTY      RE 1      ,18,DOUGLAS         ,PK- K 
P162,SOUTHEAST CHRISTIAN SCHOOL    ,9650 SOUTH JORDAN ROAD        ,PARKER              ,CO,80134 ,3038415988,0900,DOUGLAS COUNTY      RE 1      ,18,DOUGLAS         ,PK-08 
P543,TRINITY LUTHERAN SCHOOL       ,4740 NORTH STATE HIGHWAY 83   ,FRANKTOWN           ,CO,80116 ,3038414660,0900,DOUGLAS COUNTY      RE 1      ,18,DOUGLAS         ,PK-08 
P283,VALOR CHRISTIAN SCHOOL        ,3775 GRACE BLVD               ,HIGHLANDS RANCH     ,CO,80126 ,3034713327,0900,DOUGLAS COUNTY      RE 1      ,18,DOUGLAS         ,09-12 
P167,ST CLARE OF ASSISI SCHOOL     ,31622 HIGHWAY 6 - PO BOX 667  ,EDWARDS             ,CO,81632 ,9709268980,0910,EAGLE COUNTY        RE 50     ,19,EAGLE           ,K -08 
P523,VAIL CHRISTIAN ACADEMY        ,31621 HIGHWAY 6               ,EDWARDS             ,CO,81632 ,9702664116,0910,EAGLE COUNTY        RE 50     ,19,EAGLE           , K-08 
P548,VAIL CHRISTIAN HIGH SCHOOL    ,31621 US HIGHWAY 6            ,EDWARDS             ,CO,81632 ,9709263015,0910,EAGLE COUNTY        RE 50     ,19,EAGLE           ,09-12 
P546,VAIL MOUNTAIN SCHOOL          ,3000 BOOTH FALLS ROAD         ,VAIL                ,CO,81657 ,9704763850,0910,EAGLE COUNTY        RE 50     ,19,EAGLE           ,K -12 
P328,HILLSPRINGS ACADEMY           ,2776 JANITELL ROAD            ,COLORADO SPRINGS    ,CO,80906 ,7195673840,0980,HARRISON            2         ,21,EL PASO         , K-08 
P552,FOUNTAIN VALLEY SCHOOL        ,6155 FOUNTAIN VALLEY SCH ROAD ,COLORADO SPRINGS    ,CO,80911 ,7193915248,0990,WIDEFIELD           3         ,21,EL PASO         ,09-12 
P171,ASCENSION CHILDREN LEARNING CE,2505 NORTH CIRCLE DRIVE       ,COLORADO SPRINGS    ,CO,80909 ,7194478658,1010,COLORADO SPRINGS    11        ,21,EL PASO         ,PK-PK 
P067,CALVARY PRESCHOOL             ,4210 AUSTIN BLUFFS PARKWAY    ,COLORADO SPRINGS    ,CO,80918 ,7195995437,1010,COLORADO SPRINGS    11        ,21,EL PASO         ,PK-PK 
P582,COLO SPRINGS CHRISTIAN SCHOOLS,4855 MALLOW ROAD              ,COLORADO SPRINGS    ,CO,80907 ,7195993553,1010,COLORADO SPRINGS    11        ,21,EL PASO         ,PK-12 
P588,CORPUS CHRISTI CATHOLIC SCHOOL,2410 NORTH CASCADE AVENUE     ,COLORADO SPRINGS    ,CO,80907 ,7196325092,1010,COLORADO SPRINGS    11        ,21,EL PASO         ,PK-08 
P071,COUNTERPOINT SCHOOL           ,611 NORTH ROYER               ,COLORADO SPRINGS    ,CO,80919 ,7196339880,1010,COLORADO SPRINGS    11        ,21,EL PASO         ,PK-PK 
P594,DIVINE REDEEMER CATHOLIC SCH  ,901 NORTH LOGAN AVENUE        ,COLORADO SPRINGS    ,CO,80909 ,7194717771,1010,COLORADO SPRINGS    11        ,21,EL PASO         ,PK-08 
P175,EARLY CONNECTIONS LEARNING CTR,104 EAST RIO GRANDE           ,COLORADO SPRINGS    ,CO,80903 ,7196321754,1010,COLORADO SPRINGS    11        ,21,EL PASO         ,PK-PK 
P597,EVANGELICAL CHRISTIAN ACADEMY ,4052 NONCHALANT CIRCLE SOUTH  ,COLORADO SPRINGS    ,CO,80920 ,7195973675,1010,COLORADO SPRINGS    11        ,21,EL PASO         ,PK-12 
P075,FUMC PRESCHOOL                ,420 NORTH NEVADA AVENUE       ,COLORADO SPRINGS    ,CO,80903 ,7198842500,1010,COLORADO SPRINGS    11        ,21,EL PASO         ,PK-PK 
P489,GIVING TREE MONTESSORI SCHOOL ,1110 WEST MORENO AVENUE       ,COLORADO SPRINGS    ,CO,80905 ,7196303763,1010,COLORADO SPRINGS    11        ,21,EL PASO         ,PK-K  
P605,GOLDEN MOUNTAIN MONTESSORI    ,306 WEST BROOKSIDE STREET     ,COLORADO SPRINGS    ,CO,80905 ,7196320875,1010,COLORADO SPRINGS    11        ,21,EL PASO         ,PK- K 
P181,HOLY CROSS LUTHERAN SCHOOL    ,4125 CONSTITUTION AVENUE      ,COLORADO SPRINGS    ,CO,80909 ,7195964386,1010,COLORADO SPRINGS    11        ,21,EL PASO         ,PK-PK 
P008,JUNIOR ACADEMY LTD            ,1311 NORTH NEVADA             ,COLORADO SPRINGS    ,CO,80903 ,7196327681,1010,COLORADO SPRINGS    11        ,21,EL PASO         ,PK-PK 
P259,JUNIOR ACADEMY SMALL WONDERS  ,4750 EL CAMINO DRIVE          ,COLORADO SPRINGS    ,CO,80918 ,7195982095,1010,COLORADO SPRINGS    11        ,21,EL PASO         ,PK- K 
P188,KINDERCARE LEARNING CENTER    ,6610 FLYING W RANCH ROAD      ,COLORADO SPRINGS    ,CO,80919 ,7195360370,1010,COLORADO SPRINGS    11        ,21,EL PASO         ,PK-PK 
P083,KINDERCARE LEARNING CENTER    ,3325 VICKERS DRIVE            ,COLORADO SPRINGS    ,CO,80918 ,7195316508,1010,COLORADO SPRINGS    11        ,21,EL PASO         ,PK- K 
P092,LA PETITE ACADEMY             ,2760 PURGATORY DRIVE          ,COLORADO SPRINGS    ,CO,80918 ,7195990540,1010,COLORADO SPRINGS    11        ,21,EL PASO         ,PK-05 
P614,PIKES PEAK ACADEMY            ,5590 NORTH NEVADA AVENUE      ,COLORADO SPRINGS    ,CO,80918 ,7194735745,1010,COLORADO SPRINGS    11        ,21,EL PASO         ,09-12 
P615,PIKES PEAK CHRISTIAN SCHOOL   ,5905 FLINTRIDGE DRIVE         ,COLORADO SPRINGS    ,CO,80918 ,7195988610,1010,COLORADO SPRINGS    11        ,21,EL PASO         ,PK-12 
P064,PRINCETON ACADEMY             ,1840 BOULDER STREET           ,COLORADO SPRINGS    ,CO,80909 ,7196301080,1010,COLORADO SPRINGS    11        ,21,EL PASO         ,PK-PK 
P202,ROCK OF AGES LUTHERAN CHILD   ,120 NORTH 31ST STREET         ,COLORADO SPRINGS    ,CO,80904 ,7196329491,1010,COLORADO SPRINGS    11        ,21,EL PASO         ,PK-PK 
P059,RUTH WASHBURN COOP NURSERY SCH,914 NORTH 19TH STREET         ,COLORADO SPRINGS    ,CO,80904 ,7196363084,1010,COLORADO SPRINGS    11        ,21,EL PASO         ,PK-PK 
P610,SALEM LUTHERAN SCHOOL         ,4318 NORTH CHESTNUT STREET    ,COLORADO SPRINGS    ,CO,80907 ,7195990200,1010,COLORADO SPRINGS    11        ,21,EL PASO         ,PK-08 
P585,SPRINGS BAPTIST ACADEMY       ,3500 NORTH NEVADA AVE         ,COLORADO SPRINGS    ,CO,80907 ,7195937887,1010,COLORADO SPRINGS    11        ,21,EL PASO         ,K -12 
P624,ST MARY'S HIGH SCHOOL         ,2501 EAST YAMPA STREET        ,COLORADO SPRINGS    ,CO,80909 ,7196357540,1010,COLORADO SPRINGS    11        ,21,EL PASO         ,09-12 
P204,TEMPLE SHALOM PRESCHOOL       ,1523 EAST MONUMENT STREET     ,COLORADO SPRINGS    ,CO,80909 ,7196345311,1010,COLORADO SPRINGS    11        ,21,EL PASO         ,PK-PK 
P178,UCCS FAMILY DEVELOPMENT CENTER,1420 AUSTIN BLUFFS PARKWAY    ,COLORADO SPRINGS    ,CO,80918 ,7192553483,1010,COLORADO SPRINGS    11        ,21,EL PASO         ,PK-PK 
P633,ST. PAUL CATHOLIC SCHOOL      ,1601 MESA AVENUE              ,COLORADO SPRINGS    ,CO,80906 ,7196321846,1020,CHEYENNE MOUNTAIN   12        ,21,EL PASO         ,PK-08 
P630,THE COLORADO SPRINGS SCHOOL   ,21 BROADMOOR AVENUE           ,COLORADO SPRINGS    ,CO,80906 ,7194759747,1020,CHEYENNE MOUNTAIN   12        ,21,EL PASO         ,PK-12 
P892,FAMILY OF CHRIST CDC          ,675 BAPTIST ROAD              ,COLORADO SPRINGS    ,CO,80921 ,7194810796,1040,ACADEMY             20        ,21,EL PASO         ,PK- K 
P567,PIKES PEAK COMMUNITY COL CDC  ,11195 HIGHWAY 83              ,COLORADO SPRINGS    ,CO,80921 ,7195022424,1040,ACADEMY             20        ,21,EL PASO         ,PK-PK 
P569,ROCKY MOUNTAIN MONTESSORI ACAD,7675 LEXINGTON DRIVE          ,COLORADO SPRINGS    ,CO,80920 ,7195920900,1040,ACADEMY             20        ,21,EL PASO         ,PK- 8 
P639,ELLICOTT BAPTIST SCHOOL       ,24075 HIGHWAY 94              ,CALHAN              ,CO,80808 ,7196832453,1050,ELLICOTT            22        ,21,EL PASO         , K-12 
P289,ST. PETER CATHOLIC SCHOOL     ,124 FIRST STREET              ,MONUMENT            ,CO,80132 ,7194811855,1080,LEWIS-PALMER        38        ,21,EL PASO         ,PK-08 
P645,CALVARY CHRISTIAN SCHOOL      ,1415 ELM AVENUE               ,CANON CITY          ,CO,81212 ,7192755349,1140,CANON CITY          RE-1      ,22,FREMONT         ,PK-12 
P651,FOUR MILE ADVENTIST CHRISTIAN ,3180 EAST MAIN STREET         ,CANON CITY          ,CO,81212 ,7192756111,1140,CANON CITY          RE-1      ,22,FREMONT         ,PK-08 
P757,MOUNTAIN VIEW CORE KNOWLEDGE  ,890 FIELD AVENUE              ,CANON CITY          ,CO,81212 ,7192751980,1140,CANON CITY          RE-1      ,22,FREMONT         ,PK-PK 
P464,NEW CHILD MONTESSORI          ,1012 RIDGEVIEW PL             ,CANON CITY          ,CO,81212 ,7192752028,1140,CANON CITY          RE-1      ,22,FREMONT         ,PK-PK 
P580,ROCKY MOUNTAIN CHILDRENS DISCO,710 S 8TH STREET              ,CANON CITY          ,CO,81212 ,7192753318,1140,CANON CITY          RE-1      ,22,FREMONT         ,PK-PK 
P845,SPIN EARLY CHILDHOOD CARE & ED,1333 ELM AVENUE               ,CANON CITY          ,CO,81212 ,7192750550,1140,CANON CITY          RE-1      ,22,FREMONT         ,PK-PK 
P643,THE GIVING TREE               ,219 ORCHARD AVE               ,CANON CITY          ,CO,81212 ,7192752925,1140,CANON CITY          RE-1      ,22,FREMONT         ,PK-PK 
P657,FLORENCE CHRISTIAN SCHOOL     ,303 EAST THIRD STREET         ,FLORENCE            ,CO,81226 ,7197846352,1150,FREMONT             RE-2      ,22,FREMONT         ,PK-12 
P292,BLUE LAKE PRESCHOOL           ,0189 JW DRIVE UNIT C          ,CARBONDALE          ,CO,81623 ,9709634380,1180,ROARING FORK        RE-1      ,23,GARFIELD        ,PK-PK 
P660,COLORADO ROCKY MOUNTAIN SCHOOL,1493 COUNTY ROAD 106          ,CARBONDALE          ,CO,81623 ,9709632562,1180,ROARING FORK        RE-1      ,23,GARFIELD        ,09-12 
P290,GROWING YEARS PRESCHOOL       ,151 SCHOOL STREET             ,BASALT              ,CO,81621 ,9709278008,1180,ROARING FORK        RE-1      ,23,GARFIELD        ,PK-PK 
P490,MT SOPRIS MONTESSORI SCHOOL   ,879 EUCLID AVENUE             ,CARBONDALE          ,CO,81623 ,9709633506,1180,ROARING FORK        RE-1      ,23,GARFIELD        ,PK-K  
P666,ST STEPHEN'S CATHOLIC SCHOOL  ,414 S HYLAND PARK DRIVE       ,GLENWOOD SPRINGS    ,CO,81601 ,9709457746,1180,ROARING FORK        RE-1      ,23,GARFIELD        ,PK-08 
P670,WALDORF SCHOOL ON ROARING FORK,16543 OLD HIGHWAY 82          ,CARBONDALE          ,CO,81623 ,9709631960,1180,ROARING FORK        RE-1      ,23,GARFIELD        ,PK-08 
P669,EAGLES NEST E.L.C.            ,10655 HIGHWAY 119             ,BLACK HAWK          ,CO,80422 ,3035820895,1330,GILPIN COUNTY       RE-1      ,24,GILPIN          ,PK-PK 
P665,KREMMLING PRESCHOOL           ,715 KINSEY AVE PO BOX 636     ,KREMMLING           ,CO,80459 ,9707249483,1340,WEST GRAND          1-JT.     ,25,GRAND           ,PK-PK 
P533,MOUNTAIN VALLEY CHRISTIAN ACAD,PO BOX 1755                   ,KREMMLING           ,CO,80459 ,9707249604,1340,WEST GRAND          1-JT.     ,25,GRAND           , K-12 
P620,WINTER PARK CHRISTIAN SCHOOL  ,PO BOX 518                    ,TABERNASH           ,CO,80478 ,9708879784,1350,EAST GRAND          2         ,25,GRAND           , K-12 
P844,LITTLE RED SCHOOLHOUSE        ,49 GILLASPEY                  ,CRESTED BUTTE       ,CO,81224 ,9703490996,1360,GUNNISON WATERSHED  RE1J      ,26,GUNNISON        ,PK-PK 
P350,ORSCH                         ,200 NORTH SPRUCE STREET       ,GUNNISON            ,CO,81230 ,9706416758,1360,GUNNISON WATERSHED  RE1J      ,26,GUNNISON        ,K -12 
P869,PARADISE PLACE                ,404 MAROON AVE                ,CRESTED BUTTE       ,CO,81224 ,          ,1360,GUNNISON WATERSHED  RE1J      ,26,GUNNISON        ,PK-PK 
P482,STEPPING STONES CHILDREN CENTE,PO BOX 1310                   ,CRESTED BUTTE       ,CO,81224 ,9703495288,1360,GUNNISON WATERSHED  RE1J      ,26,GUNNISON        ,PK-K  
P481,TENDERFOOT CFDC               ,700 NORTH COLORADO STREET     ,GUNNISON            ,CO,81230 ,9706421949,1360,GUNNISON WATERSHED  RE1J      ,26,GUNNISON        ,PK-PK 
P577,ABIDING HOPE PRESCHOOL & KINDE,6337 SOUTH ROBB WAY           ,LITTLETON           ,CO,80127 ,3039329160,1420,JEFFERSON COUNTY    R-1       ,30,JEFFERSON       ,PK K  
P678,ALPINE VALLEY SCHOOL          ,4501 PARFET STREET            ,WHEAT RIDGE         ,CO,80033 ,3032710525,1420,JEFFERSON COUNTY    R-1       ,30,JEFFERSON       ,K -12 
P690,BETHLEHEM LUTHERAN SCHOOL     ,2100 WADSWORTH BOULEVARD      ,LAKEWOOD            ,CO,80214 ,3032330401,1420,JEFFERSON COUNTY    R-1       ,30,JEFFERSON       ,PK-08 
P590,CHILDREN'S DAY PRESCHOOL      ,7530 WEST 38TH AVENUE         ,WHEAT RIDGE         ,CO,80033 ,3034223459,1420,JEFFERSON COUNTY    R-1       ,30,JEFFERSON       ,PK-PK 
P729,COLORADO EARLY LEARNING CENTER,1690 SIMMS STREET             ,LAKEWOOD            ,CO,80215 ,3032323040,1420,JEFFERSON COUNTY    R-1       ,30,JEFFERSON       ,PK-PK 
P714,CONCORDIA LUTHERAN PRE-SCHOOL ,13371 WEST ALAMEDA PARKWAY    ,LAKEWOOD            ,CO,80228 ,3039895260,1420,JEFFERSON COUNTY    R-1       ,30,JEFFERSON       ,PK- K 
P792,CORNERSTONE MONTESSORI        ,15970 WEST 50TH AVENUE        ,GOLDEN              ,CO,80403 ,3032770245,1420,JEFFERSON COUNTY    R-1       ,30,JEFFERSON       ,PK- K 
P573,DEVEREAU CLEO WALLACE         ,8405 CHURCH RANCH BLVD        ,WESTMINSTER         ,CO,80021 ,3034382281,1420,JEFFERSON COUNTY    R-1       ,30,JEFFERSON       ,06-12 
P705,EVERGREEN COUNTRY DAY SCHOOL  ,1093 SWEDE GULCH ROAD         ,GOLDEN              ,CO,80439 ,3036743400,1420,JEFFERSON COUNTY    R-1       ,30,JEFFERSON       ,PK-08 
P310,FAITH CHRISTIAN ACADEMY       ,12189 WEST 64TH AVENUE        ,ARVADA              ,CO,80004 ,3034242121,1420,JEFFERSON COUNTY    R-1       ,30,JEFFERSON       , K-12 
P316,FOOTHILLS CHRISTIAN PRE & KIND,6100 SOUTH DEVINNEY WAY       ,LITTLETON           ,CO,80127 ,3039723162,1420,JEFFERSON COUNTY    R-1       ,30,JEFFERSON       ,PK- K 
P347,FRONT RANGE CHRISTIAN SCHOOL  ,"6657 WEST OTTAWA AVENUE, #A-17",LITTLETON           ,CO,80128 ,3035314541,1420,JEFFERSON COUNTY    R-1       ,30,JEFFERSON       ,PK-12 
P753,HYLAND CHRISTIAN SCHOOL       ,5255 WEST 98TH AVENUE         ,WESTMINSTER         ,CO,80020 ,3034661673,1420,JEFFERSON COUNTY    R-1       ,30,JEFFERSON       ,K -12 
P685,KIDS DISCOVERY DAY            ,6750 CARR STREET              ,ARVADA              ,CO,80004 ,3034316005,1420,JEFFERSON COUNTY    R-1       ,30,JEFFERSON       ,PK-PK 
P140,KINDERCARE LEARNING CENTER    ,8020 LEE DRIVE                ,ARVADA              ,CO,80005 ,3034226571,1420,JEFFERSON COUNTY    R-1       ,30,JEFFERSON       ,PK-06 
P756,LA PETITE ACADEMY             ,348 SOUTH OWENS               ,LAKEWOOD            ,CO,80226 ,3039862588,1420,JEFFERSON COUNTY    R-1       ,30,JEFFERSON       ,PK- K 
P576,LAKEWOOD LEARNING CENTER      ,946 BENTON STREET             ,LAKEWOOD            ,CO,80214 ,3032370917,1420,JEFFERSON COUNTY    R-1       ,30,JEFFERSON       ,PK- K 
P765,LITTLE PEOPLES LANDING        ,8305 SOUTH WADSWORTH BLVD     ,LITTLETON           ,CO,80128 ,3039731926,1420,JEFFERSON COUNTY    R-1       ,30,JEFFERSON       ,PK- K 
P732,LITTLETON MONTESSORI SCHOOL   ,6653 WEST CHATFIELD AVENUE    ,LITTLETON           ,CO,80228 ,3039797190,1420,JEFFERSON COUNTY    R-1       ,30,JEFFERSON       ,PK- K 
P774,MILE HIGH BAPTIST SCHOOL      ,8100 WEST HAMPDEN AVENUE      ,DENVER              ,CO,80227 ,3039862183,1420,JEFFERSON COUNTY    R-1       ,30,JEFFERSON       ,K -12 
P786,MONTESSORI SCHOOL OF EVERGREEN,P O BOX 2468                  ,EVERGREEN           ,CO,80437 ,3036740093,1420,JEFFERSON COUNTY    R-1       ,30,JEFFERSON       ,PK-08 
P382,OAK STREET CDC                ,6711 GRANDVIEW AVE            ,ARVADA              ,CO,80002 ,3034259501,1420,JEFFERSON COUNTY    R-1       ,30,JEFFERSON       ,PK-PK 
P801,OUR LADY OF FATIMA CATHOLIC   ,10530 WEST 20TH AVENUE        ,LAKEWOOD            ,CO,80215 ,3032332500,1420,JEFFERSON COUNTY    R-1       ,30,JEFFERSON       ,PK-08 
P905,PATTERSON CHILDREN'S CENTER   ,12100 WEST ALAMEDA PARKWAY    ,LAKEWOOD            ,CO,80228 ,3032753421,1420,JEFFERSON COUNTY    R-1       ,30,JEFFERSON       ,PK-PK 
P572,RENAISSANCE CHILDREN'S CENTER ,1797 KENDAL STREET            ,LAKEWOOD            ,CO,80214 ,3032376132,1420,JEFFERSON COUNTY    R-1       ,30,JEFFERSON       ,PK-06 
P813,SHEPHERD/THE VALLEY LUTHERAN  ,8820 FIELD STREET             ,WESTMINSTER         ,CO,80021 ,3034241306,1420,JEFFERSON COUNTY    R-1       ,30,JEFFERSON       ,PK-08 
P822,SHRINE OF ST ANNE             ,7320 GRANT PLACE              ,ARVADA              ,CO,80002 ,3034221800,1420,JEFFERSON COUNTY    R-1       ,30,JEFFERSON       ,K -08 
P816,SILVER STATE CHRISTIAN SCHOOL ,14711 WEST MORRISON ROAD      ,MORRISON            ,CO,80465 ,3039228850,1420,JEFFERSON COUNTY    R-1       ,30,JEFFERSON       ,PK-08 
P825,ST BERNADETTE CATHOLIC SCHOOL ,1100 UPHAM STREET             ,LAKEWOOD            ,CO,80214 ,3032370401,1420,JEFFERSON COUNTY    R-1       ,30,JEFFERSON       ,PK-08 
P898,ST JOAN OF ARC ELC            ,12735 WEST 58TH AVE           ,ARVADA              ,CO,80002 ,3034224949,1420,JEFFERSON COUNTY    R-1       ,30,JEFFERSON       ,PK- K 
P828,STS PETER AND PAUL SCHOOL     ,3920 PIERCE                   ,WHEAT RIDGE         ,CO,80033 ,3034240402,1420,JEFFERSON COUNTY    R-1       ,30,JEFFERSON       ,PK-08 
P749,THE DENVER STREET SCHOOL      ,PO BOX 140069                 ,LAKEWOOD            ,CO,80214 ,3038477582,1420,JEFFERSON COUNTY    R-1       ,30,JEFFERSON       ,09-12 
P843,WOODEN SHOE PRESCHOOL & KGRTN ,9180 YARROW STREET            ,WESTMINSTER         ,CO,80226 ,3034226195,1420,JEFFERSON COUNTY    R-1       ,30,JEFFERSON       ,PK-06 
P320,SACRED HEART ACADEMY          ,228 11TH STREET               ,BURLINGTON          ,CO,80807 ,7193430091,1500,BURLINGTON          RE-6J     ,32,KIT CARSON      , K-08 
P500,CHILDREN'S HOUSE OF DURANGO   ,1689 WEST 3RD AVENUE          ,DURANGO             ,CO,81301 ,9702591089,1520,DURANGO             9-R       ,34,LA PLATA        ,PK- K 
P055,COLORADO TIMBERLINE ACADEMY   ,35554 HIGHWAY 550             ,DURANGO             ,CO,81301 ,9702475898,1520,DURANGO             9-R       ,34,LA PLATA        ,09-12 
P553,DURANGO EARLY LEARNING CENTER ,890 EAST 3RD AVENUE           ,DURANGO             ,CO,81301 ,9702591483,1520,DURANGO             9-R       ,34,LA PLATA        ,PK-PK 
P503,MERCY EMPLOYEE CHILDCARE      ,1010 THREE SPRINGS BLVD       ,DURANGO             ,CO,81301 ,9707641375,1520,DURANGO             9-R       ,34,LA PLATA        ,PK-PK 
P502,NEW HORIZONS                  ,1161 EAST 3RD AVENUE          ,DURANGO             ,CO,81301 ,9702478759,1520,DURANGO             9-R       ,34,LA PLATA        ,PK-PK 
P504,RIVERHOUSE CHILDREN'S CENTER  ,742 FLORIDA ROAD              ,DURANGO             ,CO,81301 ,9702470204,1520,DURANGO             9-R       ,34,LA PLATA        ,PK-PK 
P861,SAINT COLUMBA SCHOOL          ,1801 EAST THIRD AVE           ,DURANGO             ,CO,81301 ,9702475527,1520,DURANGO             9-R       ,34,LA PLATA        ,PK-08 
P809,ST. PAUL'S LUTHERAN PRESCHOOL ,2611 JUNCTION ST              ,DURANGO             ,CO,81301 ,9702471368,1520,DURANGO             9-R       ,34,LA PLATA        ,PK-PK 
P808,UNITED METHODIST CHRISTIAN    ,2917 ASPEN DR                 ,DURANGO             ,CO,81301 ,9702478680,1520,DURANGO             9-R       ,34,LA PLATA        ,PK-PK 
P884,SILVER SPRUCE ACADEMY         ,40031 US HWY 160/PO BOX 966   ,BAYFIELD            ,CO,81122 ,9707593415,1530,BAYFIELD            10 JT-R   ,34,LA PLATA        ,K-12  
P754,PINE RIVER COMMUNITY LEARNING ,PO BOX 710                    ,IGNACIO             ,CO,81137 ,9705630681,1540,IGNACIO             11 JT     ,34,LA PLATA        ,K-12  
P515,"BASE CAMP, STOVE PRAIRIE PK   ",1241 RIVERSIDE AVENUE         ,FORT COLLINS        ,CO,80524 ,9704886585,1550,POUDRE              R-1       ,35,LARIMER         ,PK-PK 
P870,BEEBE CHRISTIAN SCHOOL        ,821 WEST LAKE STREET          ,FORT COLLINS        ,CO,80521 ,9704824409,1550,POUDRE              R-1       ,35,LARIMER         ,PK-08 
P508,BRIGHT HORIZONS E. FORT COLLIN,2815 IOWA DRIVE               ,FORT COLLINS        ,CO,80525 ,9704844700,1550,POUDRE              R-1       ,35,LARIMER         ,PK- K 
P509,CHILDREN'S HOUSE MONTESSORI   ,113 NORTH SHIELDS STREET      ,FORT COLLINS        ,CO,80521 ,9704843623,1550,POUDRE              R-1       ,35,LARIMER         ,PK-PK 
P185,CORNERSTONE CHRISTIAN SCHOOL  ,419 STARLING STREET           ,FORT COLLINS        ,CO,80526 ,9706915210,1550,POUDRE              R-1       ,35,LARIMER         ,02-12 
P511,CREATIVE KID'S CORNER         ,4103 HAYES AVE PO BOX 1012    ,WELLINGTON          ,CO,80549 ,9705680780,1550,POUDRE              R-1       ,35,LARIMER         ,PK-PK 
P507,EYESTONE BASE CAMP PRESCHOOL  ,1241 RIVERSIDE AVENUE         ,FORT COLLINS        ,CO,80524 ,9702661734,1550,POUDRE              R-1       ,35,LARIMER         ,PK-PK 
P043,FRONT RANGE BAPTIST ACADEMY   ,625 EAST HARMONY ROAD         ,FORT COLLINS        ,CO,80525 ,9702232173,1550,POUDRE              R-1       ,35,LARIMER         , K-12 
P715,HEARTS IN HAND                ,2464 MARQUETTE STREET         ,FORT COLLINS        ,CO,80525 ,9702231245,1550,POUDRE              R-1       ,35,LARIMER         ,PK- K 
P867,HERITAGE CHRISTIAN ACADEMY    ,2506 ZURICH DRIVE             ,FORT COLLINS        ,CO,80524 ,9704941022,1550,POUDRE              R-1       ,35,LARIMER         ,K -12 
P879,LITTLE LAMBS PRESCHOOL        ,4610 HOGAN DRIVE              ,FORT COLLINS        ,CO,80525 ,9704204753,1550,POUDRE              R-1       ,35,LARIMER         ,PK-PK 
P513,LITTLE PEOPLE'S LANDING       ,6606 AVONDALE ROAD            ,FORT COLLINS        ,CO,80525 ,9702252936,1550,POUDRE              R-1       ,35,LARIMER         ,PK- K 
P873,RIVENDELL SCHOOL              ,1800 EAST PROSPECT ROAD       ,FORT COLLINS        ,CO,80525 ,9704939052,1550,POUDRE              R-1       ,35,LARIMER         ,PK-06 
P876,SAINT JOSEPH SCHOOL           ,127 NORTH HOWES STREET        ,FORT COLLINS        ,CO,80521 ,9704841171,1550,POUDRE              R-1       ,35,LARIMER         ,PK- 8 
P046,SPRING CREEK SCHOOL           ,1900 REMINGTON                ,FORT COLLINS        ,CO,80525 ,9702244240,1550,POUDRE              R-1       ,35,LARIMER         ,PK- K 
P514,TEACHING TREE                 ,424 PINE STREET SUITE 100     ,FORT COLLINS        ,CO,80524 ,9704932628,1550,POUDRE              R-1       ,35,LARIMER         ,PK-PK 
P586,THE FAMILY CENTER/LA FAMILIA  ,309 HICKORY STREET            ,FORT COLLINS        ,CO,80524 ,9702211615,1550,POUDRE              R-1       ,35,LARIMER         ,PK-PK 
P256,BRIGHT HORIZONS               ,2420 WEST 8TH STREET          ,LOVELAND            ,CO,80537 ,9704619802,1560,THOMPSON            R-2J      ,35,LARIMER         ,PK- K 
P882,CAMPION ACADEMY               ,300 42ND STREET SW            ,LOVELAND            ,CO,80537 ,9706675592,1560,THOMPSON            R-2J      ,35,LARIMER         ,09-12 
P888,H.M.S. RICHARDS ADVENTIST     ,342 SW 42ND STREET            ,LOVELAND            ,CO,80537 ,9706672427,1560,THOMPSON            R-2J      ,35,LARIMER         ,K -08 
P891,IMMANUEL LUTHERAN SCHOOL      ,4650 SUNVIEW DRIVE            ,LOVELAND            ,CO,80538 ,9706677606,1560,THOMPSON            R-2J      ,35,LARIMER         ,PK-08 
P280,LOVELAND KINDERCARE           ,2755 NORTH GARFIELD           ,LOVELAND            ,CO,80538 ,9702136545,1560,THOMPSON            R-2J      ,35,LARIMER         ,PK-PK 
P894,PROTESTANT REFORMED CHRISTIAN ,705 EAST 57TH STREET          ,LOVELAND            ,CO,80538 ,9706679289,1560,THOMPSON            R-2J      ,35,LARIMER         ,K -12 
P895,RESURRECTION CHRISTIAN SCHOOL ,6508 EAST CROSSROADS BLVD     ,LOVELAND            ,CO,80538 ,9706120674,1560,THOMPSON            R-2J      ,35,LARIMER         ,PK-12 
P897,ST JOHN THE EVANGELIST        ,1730 WEST 12TH STREET         ,LOVELAND            ,CO,80537 ,9706355830,1560,THOMPSON            R-2J      ,35,LARIMER         ,PK-08 
P359,THE SUNSHINE HOUSE            ,1801 PINEY RIVER DRIVE        ,LOVELAND            ,CO,80538 ,9706350111,1560,THOMPSON            R-2J      ,35,LARIMER         ,PK- K 
P656,HOLY TRINITY ACADEMY          ,600 PROSPECT STREET BOX 208   ,TRINIDAD            ,CO,81082 ,7198464522,1580,TRINIDAD            1         ,36,LAS ANIMAS      ,K -12 
P550,ST ANTHONY CATHOLIC SCHOOL    ,324 SOUTH THIRD STREET        ,STERLING            ,C0,80751 ,9705227567,1828,VALLEY              RE-1      ,38,LOGAN           ,PK-8  
P746,LITTLE FOLKS PRESCHOOL        ,427 LEE ST PO BOX 200         ,MERINO              ,CO,80741 ,9705219831,1860,BUFFALO             RE-4      ,38,LOGAN           ,PK-PK 
P337,BOOKCLIFF CHRISTIAN SCHOOL    ,2702 PATTERSON ROAD           ,GRAND JUNCTION      ,CO,81506 ,9702432999,2000,MESA COUNTY VALLEY  51        ,39,MESA            ,PK-05 
P909,CHRISTIAN COMMUNITY SCHOOLS   ,PO BOX 349                    ,CLIFTON             ,CO,81520 ,9704340205,2000,MESA COUNTY VALLEY  51        ,39,MESA            ,PK-12 
P549,GJ LEADERSHIP ACADEMY         ,3170 D 1/2 ROAD               ,GRAND JUNCTION      ,CO,81504 ,9705235249,2000,MESA COUNTY VALLEY  51        ,39,MESA            ,PK-04 
P344,GRAND VALLEY CHRISTIAN HIGH   ,PO BOX 2313                   ,GRAND JUNCTION      ,CO,81502 ,9702414126,2000,MESA COUNTY VALLEY  51        ,39,MESA            ,08-12 
P217,GRAND VALLEY MENNONITE SCHOOL ,1345 14 ROAD                  ,LOMA                ,CO,81524 ,9708584249,2000,MESA COUNTY VALLEY  51        ,39,MESA            ,1 -10 
P915,HOLY FAMILY CATHOLIC SCHOOL   ,786 26 1/2 ROAD               ,GRAND JUNCTION      ,CO,81506 ,9702426168,2000,MESA COUNTY VALLEY  51        ,39,MESA            ,PK-08 
P805,LANDMARK BAPTIST SCHOOL       ,1600 UTE AVE                  ,GRAND JUNCTION      ,CO,81501 ,9702437617,2000,MESA COUNTY VALLEY  51        ,39,MESA            , K-12 
P475,LIBERTY CHRISTIAN ACADEMY     ,448 SOUTH CAMP ROAD           ,GRAND JUNCTION      ,CO,81507 ,9702435275,2000,MESA COUNTY VALLEY  51        ,39,MESA            , K-12 
P924,LIFE ACADEMY                  ,636 29 ROAD                   ,GRAND JUNCTION      ,CO,81504 ,9702429431,2000,MESA COUNTY VALLEY  51        ,39,MESA            ,PK-12 
P927,LUTHERAN SCHOOL OF MESSIAH    ,840 NORTH 11TH STREET         ,GRAND JUNCTION      ,CO,81501 ,9702452838,2000,MESA COUNTY VALLEY  51        ,39,MESA            ,PK-08 
P936,PEAR PARK BAPTIST             ,3102 E ROAD                   ,GRAND JUNCTION      ,CO,81504 ,9704344113,2000,MESA COUNTY VALLEY  51        ,39,MESA            , K-12 
P759,MASLOW ACADEMY OF APPLIED LEAR,120 NORTH HILLCREST DRIVE     ,MONTROSE            ,CO,81401 ,9702496483,2180,MONTROSE COUNTY     RE-1J     ,43,MONTROSE        ,K-5   
P627,POPE JOHN PAUL ACADEMY        ,67051 SUNNY SIDE ROAD         ,MONTROSE            ,CO,81401 ,9702492996,2180,MONTROSE COUNTY     RE-1J     ,43,MONTROSE        ,K-08  
P951,SPRING CREEK SDA SCHOOL       ,14488 - 6175 ROAD             ,MONTROSE            ,CO,81403 ,9702495500,2180,MONTROSE COUNTY     RE-1J     ,43,MONTROSE        ,K -08 
P954,RIVERVIEW CHRISTIAN SCHOOL    ,19201 MCR 24                  ,BRUSH               ,CO,80723 ,9708424604,2405,FORT MORGAN         RE-3      ,44,MORGAN          ,PK- 8 
P957,TRINITY LUTHERAN SCHOOL       ,1215 WEST 7TH AVENUE          ,FORT MORGAN         ,CO,80701 ,9708674931,2405,FORT MORGAN         RE-3      ,44,MORGAN          ,PK-08 
P960,PIONEER CHRISTIAN SCHOOL      ,22535 ROAD CC.5               ,ROCKY FORD          ,CO,81067 ,7192543550,2530,ROCKY FORD          R-2       ,45,OTERO           ,K -12 
P526,FOWLER DAY CARE PRESCHOOL     ,208 MAIN/PO BOX 245           ,FOWLER              ,CO,81039 ,7192634844,2540,FOWLER              R-4J      ,45,OTERO           ,PK-PK 
P554,LIL RASCALS DAYCARE           ,208 SOUTH MAIN STREET         ,FOWLER              ,CO,81036 ,7198262011,2540,FOWLER              R-4J      ,45,OTERO           ,PK-PK 
P778,MOUNTAIN TRAILS MONTESSORI    ,416 AMY WAY                   ,RIDGWAY             ,CO,81432 ,9706264233,2590,RIDGWAY             R-2       ,46,OURAY           ,PK-3  
P116,BRISTLECONE MONTESSORI SCHOOL ,PO BOX 236                    ,ALMA                ,CO,80420 ,7198362552,2610,PARK COUNTY         RE-2      ,47,PARK            ,PK-06 
P356,DRAGON'S WAGON PRESCHOOL INC  ,PO BOX 363                    ,HOLYOKE             ,CO,80734 ,          ,2620,HOLYOKE             RE-1J     ,48,PHILLIPS        ,PK-PK 
P769,EASTSIDE CHILD CARE CENTER    ,2717 EAST 8TH STREET          ,PUEBLO              ,CO,81001 ,7195452203,2690,PUEBLO CITY         60        ,51,PUEBLO          ,PK-PK 
P823,HAPPYLAND PRESCHOOL           ,1605 SOUTH PUEBLO BLVD        ,PUEBLO              ,CO,81005 ,7195661311,2690,PUEBLO CITY         60        ,51,PUEBLO          ,PK- K 
P683,SOUTHSIDE CHILDREN'S CENTER   ,2601 SPRAGUE AVE              ,PUEBLO              ,CO,81004 ,7195642285,2690,PUEBLO CITY         60        ,51,PUEBLO          ,PK-PK 
P981,ST JOHN NEUMANN CATHOLIC SCHOO,2415 E. ORMAN AVENUE          ,PUEBLO              ,CO,81004 ,7195619419,2690,PUEBLO CITY         60        ,51,PUEBLO          ,PK-08 
P113,ST THERESE CATHOLIC SCHOOL    ,320 GOODNIGHT AVENUE          ,PUEBLO              ,CO,81004 ,7195611121,2690,PUEBLO CITY         60        ,51,PUEBLO          ,PK-11 
P761,THE MCCLELLAND SCHOOL         ,415 E ABRIENDO AVE            ,PUEBLO              ,CO,81004 ,7195435271,2690,PUEBLO CITY         60        ,51,PUEBLO          ,PK-08 
P555,SOARING EAGLES CTR FOR AUTISM ,PO BOX 7878                   ,PUEBLO WEST         ,CO,81007 ,7195478803,2700,PUEBLO COUNTY 70              ,51,PUEBLO          ,PK-12 
P449,RANGELY CHRISTIAN ACADEMY     ,1402 EAST MAIN STREET         ,RANGELY             ,CO,81648 ,9706752032,2720,RANGELY             RE-4      ,52,RIO BLANCO      ,K-08  
P440,NEW HOPE CHRISTIAN SCHOOL     ,PO BOX 5/25258 HYY 160        ,SOUTH FORK          ,CO,81154 ,7198731202,2730,DEL NORTE           C-7       ,53,RIO GRANDE      ,PK-05 
P831,ST PETER'S LUTHERAN SCHOOL    ,330 FARADAY STREET            ,MONTE VISTA         ,CO,81144 ,7198525449,2740,MONTE VISTA         C-8       ,53,RIO GRANDE      ,K -08 
P871,SARGENT EARLY LEARNING CENTER ,7072 N COUNTY ROAD 2E         ,MONTE VISTA         ,CO,81144 ,          ,2750,SARGENT             RE-33J    ,53,RIO GRANDE      ,PK-PK 
P156,EMERALD MOUNTAIN SCHOOL       ,P O BOX 770723                ,STEAMBOAT SPRINGS   ,CO,80477 ,9708798081,2770,STEAMBOAT SPRINGS   RE-2      ,54,ROUTT           ,K -08 
P430,HERITAGE CHRISTIAN SCHOOL     ,27285 BRANDON CIRCLE          ,STEAMBOAT SPRINGS   ,CO,80487 ,9708791760,2770,STEAMBOAT SPRINGS   RE-2      ,54,ROUTT           ,K -12 
P023,STEAMBOAT MOUNTAIN SCHOOL     ,42605 ROUTT COUNTY ROAD 36    ,STEAMBOAT SPRINGS   ,CO,80487 ,9708791350,2770,STEAMBOAT SPRINGS   RE-2      ,54,ROUTT           ,09-12 
P899,TELLURIDE MOUNTAIN SCHOOL     ,200 SAN MIGUEL RIVER DRIVE    ,TELLURIDE           ,CO,81435 ,9707281969,2830,TELLURIDE           R-1       ,57,SAN MIGUEL      ,PK-12 
P881,PRIME TIME EARLY LEARNING CTR ,PO BOX 340                    ,NORWOOD             ,CO,81423 ,9703270555,2840,NORWOOD             R-2J      ,57,SAN MIGUEL      ,PK-PK 
P398,JANELLES PRESCHOOL            ,415 WEST AVENUE               ,SEDGWICK            ,CO,80749 ,9704635650,2865,PLATTE VALLEY       RE-3      ,58,SEDGWICK        ,PK-PK 
P562,BRECKENRIDGE MONTESSORI SCHOOL,PO BOX 1508                   ,BRECKENRIDGE        ,CO,80424 ,9705417661,3000,SUMMIT              RE-1      ,59,SUMMIT          ,PK-PK 
P494,LITTLE RED SCHOOLHOUSE        ,600 REILING ROAD              ,BRECKENRIDGE        ,CO,80424 ,9704536871,3000,SUMMIT              RE-1      ,59,SUMMIT          ,PK-PK 
P812,SUMMIT COUNTY PRESCHOOL       ,70 WEST MAIN STREET PO BOX 631,FRISCO              ,CO,80443 ,9706685508,3000,SUMMIT              RE-1      ,59,SUMMIT          ,PK-PK 
P565,THE PEAK SCHOOL               ,PO BOX 550                    ,FRISCO              ,CO,80443 ,9703685601,3000,SUMMIT              RE-1      ,59,SUMMIT          ,06-10 
P383,TIMBERLINE LEARNING CENTER    ,PO BOX 3098                   ,BRECKENRIDGE        ,CO,80424 ,9704539656,3000,SUMMIT              RE-1      ,59,SUMMIT          ,PK-PK 
P305,COLORADO SPRINGS CHRISTIAN SCH,1003 TAMARAC PARKWAY          ,WOODLAND PARK       ,CO,80863 ,7196860706,3020,WOODLAND PARK       RE-2      ,60,TELLER          , K-08 
P674,EATON EARLY LEARNING CENTER   ,25 SOUTH COTTENWOOD AVENUE    ,EATON               ,CO,80615 ,9704549400,3085,EATON               RE-2      ,62,WELD            ,PK-PK 
P777,#1 CHILD ENRICHMENT CENTER    ,4601 WEST 9TH STREET          ,GREELEY             ,CO,80634 ,9703461101,3120,GREELEY             6         ,62,WELD            ,PK-PK 
P607,ABC CENTRAL CHILD DEVELOPMENT ,1511 12TH AVENUE              ,GREELEY             ,CO,80637 ,9703522222,3120,GREELEY             6         ,62,WELD            ,PK-PK 
P539,ABC WEST CHILD DEVELOPMENT CTR,5000 WEST 11TH STREET         ,GREELEY             ,CO,80634 ,9703522222,3120,GREELEY             6         ,62,WELD            ,PK-PK 
P050,ADVENTIST CHRISTIAN SCHOOL    ,612 23RD AVENUE               ,GREELEY             ,CO,80634 ,9703532770,3120,GREELEY             6         ,62,WELD            ,K -08 
P041,DAYSPRING CHRISTIAN ACADEMY   ,3734 WEST 20TH STREET         ,GREELEY             ,CO,80634 ,9703301151,3120,GREELEY             6         ,62,WELD            ,PK-12 
P776,EARLY CHILDHOOD UNIVERSITY    ,2651 WEST 11TH STREET         ,GREELEY             ,CO,80634 ,9708881592,3120,GREELEY             6         ,62,WELD            ,PK-PK 
P123,SHEPHERD OF THE HILLS LUTHERAN,950 43RD AVENUE               ,GREELEY             ,CO,80634 ,9703536582,3120,GREELEY             6         ,62,WELD            ,PK-PK 
P878,ST MARY'S CATHOLIC SCHOOL     ,2351 22ND AVENUE              ,GREELEY             ,CO,80631 ,9703538100,3120,GREELEY             6         ,62,WELD            ,PK-08 
P053,TRINITY LUTHERAN SCHOOL       ,3000 35TH AVENUE              ,GREELEY             ,CO,80634 ,9703302485,3120,GREELEY             6         ,62,WELD            ,PK-08 
P663,KERSEY EARLY LEARNING CENTER  ,215 2ND STREET PO BOX 566     ,KERSEY              ,CO,80644 ,9703920744,3130,PLATTE VALLEY       RE-7      ,62,WELD            ,PK-PK 
P568,HIGHLAND EARLY CHILDHOOD CTR  ,PO BOX 327 102 ALPINE AVENUE  ,AULT                ,CO,80610 ,9708341326,3145,AULT-HIGHLAND       RE-9      ,62,WELD            ,PK-PK 
